[{"OBJECT_NAME":"239ALFEROV (RS61S)","OBJECT_ID":"2025-155F","EPOCH":"2026-03-09T21:46:33.382848","MEAN_MOTION":15.29933217,"ECCENTRICITY":0.00084878,"INCLINATION":97.4469,"RA_OF_ASC_NODE":37.6373,"ARG_OF_PERICENTER":151.5904,"MEAN_ANOMALY":208.58,"EPHEMERIS_TYPE":0,"CLASSIFICATION_TYPE":"U","NORAD_CAT_ID":64881,"ELEMENT_SET_NO":999,"REV_AT_EPOCH":6561,"BSTAR":0.00067233359,"MEAN_MOTION_DOT":0.00019457,"MEAN_MOTION_DDOT":0},{"OBJECT_NAME":"STARLINK-35787","OBJECT_ID":"2025-288V","EPOCH":"2026-03-09T06:02:08.980512","MEAN_MOTION":15.27565968,"ECCENTRICITY":0.00013355,"INCLINATION":43.0028,"RA_OF_ASC_NODE":25.6444,"ARG_OF_PERICENTER":274.6201,"MEAN_ANOMALY":85.4498,"EPHEMERIS_TYPE":0,"CLASSIFICATION_TYPE":"U","NORAD_CAT_ID":66978,"ELEMENT_SET_NO":999,"REV_AT_EPOCH":1522,"BSTAR":0.00089155583,"MEAN_MOTION_DOT":0.00024342,"MEAN_MOTION_DDOT":0}]
